[Satellite]
VERSION=1.1
NAME=STARLINK-5227
NICKNAME=STARLINK-5227
TLE1=1 54181U 22141AA  22321.58334491  .00024512  00000+0  17871-3 0  9996
TLE2=2 54181  53.2181  42.2501 0002996  12.9786 113.2155 15.73177514  1307
STATUS=0
